TELSTAR 12V             
1 41036U 15068A   26197.12437101 -.00000130  00000+0  00000+0 0  9991
2 41036   0.0192  42.3486 0002124  68.3334 213.0478  1.00271011 38910
ELEKTRO-L 2             
1 41105U 15074A   26196.98185514 -.00000131  00000+0  00000+0 0  9997
2 41105   6.7640  70.1648 0000985 213.4147 349.2070  1.00272041 38795
COSMOS 2513             
1 41121U 15075A   26196.85811584 -.00000149  00000+0  00000+0 0  9994
2 41121   0.0638 103.4660 0002333 344.7790 234.6064  1.00272633 38834
EXPRESS-AMU1            
1 41191U 15082A   26197.13451105  .00000000  00000+0  00000+0 0  9995
2 41191   0.0159  45.6651 0002542  85.2969 247.5699  1.00275681 38555
GAOFEN-4                
1 41194U 15083A   26197.09281006 -.00000345  00000+0  00000+0 0  9998
2 41194   0.4297  83.7450 0004273 126.0507 223.2413  1.00272137 38817
BELINTERSAT-1           
1 41238U 16001A   26197.13754441  .00000096  00000+0  00000+0 0  9993
2 41238   0.0510 248.7896 0001777 184.0684 322.1320  1.00273499 38529
IRNSS-1E                
1 41241U 16003A   26194.04240410 -.00000321  00000+0  00000+0 0  9994
2 41241  33.2887  59.3748 0018977 176.6620 181.8769  1.00278688 38338
EUTELSAT 9B             
1 41310U 16005A   26197.12913770  .00000051  00000+0  00000+0 0  9990
2 41310   0.0390  62.9661 0001067  42.8913 243.5706  1.00271045 38406
SES-9                   
1 41380U 16013A   26197.00620859 -.00000356  00000+0  00000+0 0  9995
2 41380   0.0136 340.1242 0002161 126.3108 297.9416  1.00272140 37729
EUTELSAT 65 WEST A      
1 41382U 16014A   26197.04313160 -.00000287  00000+0  00000+0 0  9999
2 41382   0.0972 295.4135 0002154 180.0931 128.7001  1.00270197 37816
IRNSS-1F                
1 41384U 16015A   26196.91992771  .00000144  00000+0  00000+0 0  9999
2 41384   5.4189  96.1188 0017694 180.0641  21.2430  1.00266657 37958
BEIDOU-2 IGSO-6         
1 41434U 16021A   26177.11016981 -.00000145  00000+0  00000+0 0  9995
2 41434  60.2385  37.9495 0057558 231.0163 137.2672  1.00258926 37578
IRNSS-1G                
1 41469U 16027A   26197.01045528 -.00000348  00000+0  00000+0 0  9994
2 41469   5.2647  96.8077 0005960  11.5789 318.9035  1.00270417 37469
JCSAT-2B                
1 41471U 16028A   26196.80144250 -.00000175  00000+0  00000+0 0  9994
2 41471   0.0179  38.8298 0000901  67.0770 270.2536  1.00276535 37410
THAICOM 8               
1 41552U 16031A   26195.36073796 -.00000128  00000+0  00000+0 0  9992
2 41552   0.0745  49.0681 0002940  25.2774  66.2255  1.00270441 36997
INTELSAT 31 (IS-31)     
1 41581U 16035A   26197.10848499 -.00000161  00000+0  00000+0 0  9999
2 41581   0.0113 301.5806 0001145 353.9197 302.4443  1.00270128 36973
BEIDOU-2 G7             
1 41586U 16037A   26197.09281006 -.00000365  00000+0  00000+0 0  9995
2 41586   1.7895  69.4986 0005900 359.7484   8.6426  1.00272926  7183
ABS-2A (MONGOLSAT-1)    
1 41588U 16038A   26196.78571432 -.00000094  00000+0  00000+0 0  9997
2 41588   0.0126  43.2812 0001125  41.1980 206.6930  1.00270677 36992
EUTELSAT 117 WEST B     
1 41589U 16038B   26197.03290204 -.00000022  00000+0  00000+0 0  9993
2 41589   0.0097 199.8826 0000168 314.0131  34.8299  1.00273122 36952
BRISAT                  
1 41591U 16039A   26195.58882668  .00000000  00000+0  00000+0 0  9991
2 41591   0.0189  30.7279 0001897  84.5968 179.5972  1.00268660 36887
ECHOSTAR 18             
1 41592U 16039B   26195.19044265 -.00000289  00000+0  00000+0 0  9992
2 41592   0.0179  38.9958 0001365  85.5892 174.6593  1.00271148 36899
MUOS-5                  
1 41622U 16041A   26197.10675166 -.00000150  00000+0  00000+0 0  9999
2 41622   2.1426 302.2369 0199577 260.5991  24.4039  1.00272579 37372
TIANTONG-1 1            
1 41725U 16048A   26197.00482191 -.00000328  00000+0  00000+0 0  9990
2 41725   3.9038  43.6351 0004975  58.9073 294.4022  1.00268533 36553
JCSAT-16                
1 41729U 16050A   26196.72818086 -.00000261  00000+0  00000+0 0  9997
2 41729   0.0177  43.0608 0001063  81.7179 214.8845  1.00273960 36351
USA 270                 
1 41744U 16052A   26195.45234249 -.00000362  00000+0  00000+0 0  9990
2 41744   4.2649  76.8388 0009408 101.7031  42.7683  1.00267800 28409
USA 271                 
1 41745U 16052B   26195.12317037 -.00000300  00000+0  00000+0 0  9994
2 41745   4.2370  76.9135 0011085 165.9764 191.3847  1.00268559 28181
INTELSAT 36 (IS-36)     
1 41747U 16053A   26197.14092442 -.00000034  00000+0  00000+0 0  9995
2 41747   0.0127  37.3822 0002358 302.1989  73.5997  1.00270566 36242
INSAT-3DR               
1 41752U 16054A   26197.14205110 -.00000087  00000+0  00000+0 0  9998
2 41752   0.0723  88.7235 0010545 181.2050 149.1809  1.00270781 36106
GSAT-18                 
1 41793U 16060A   26197.14196442 -.00000087  00000+0  00000+0 0  9997
2 41793   0.0377  90.5163 0005259 348.4710 340.0605  1.00271353 35812
SKY MUSTER 2 (NBN1B)    
1 41794U 16060B   26195.73029293  .00000000  00000+0  00000+0 0  9994
2 41794   0.0200  47.5294 0001593  74.1319 218.6380  1.00269327 35795
HIMAWARI-9              
1 41836U 16064A   26196.94133448 -.00000285  00000+0  00000+0 0  9993
2 41836   0.0394 252.9658 0001915 278.3797 242.0457  1.00271902 35493
SHIJIAN-17 (SJ-17)      
1 41838U 16065A   26196.80924255  .00000053  00000+0  00000+0 0  9997
2 41838   5.8236  72.2570 0001893  44.6986 301.4149  0.99865974 35480
