OBJECT_NAME,OBJECT_ID,EPOCH,MEAN_MOTION,ECCENTRICITY,INCLINATION,RA_OF_ASC_NODE,ARG_OF_PERICENTER,MEAN_ANOMALY,EPHEMERIS_TYPE,CLASSIFICATION_TYPE,NORAD_CAT_ID,ELEMENT_SET_NO,REV_AT_EPOCH,BSTAR,MEAN_MOTION_DOT,MEAN_MOTION_DDOT
TELSTAR 12V,2015-068A,2026-07-16T02:59:05.655264,1.00271011,.0002124,0.0192,42.3486,68.3334,213.0478,0,U,41036,999,3891,0,-.13E-5,0
ELEKTRO-L 2,2015-074A,2026-07-15T23:33:52.284096,1.00272041,.0000985,6.7640,70.1648,213.4147,349.2070,0,U,41105,999,3879,0,-.131E-5,0
COSMOS 2513,2015-075A,2026-07-15T20:35:41.208576,1.00272633,.00023339,0.0638,103.4660,344.7790,234.6064,0,U,41121,999,3883,0,-.149E-5,0
EXPRESS-AMU1,2015-082A,2026-07-16T03:13:41.754720,1.00275681,.0002542,0.0159,45.6651,85.2969,247.5699,0,U,41191,999,3855,0,0,0
GAOFEN-4,2015-083A,2026-07-16T02:13:38.789184,1.00272137,.0004273,0.4297,83.7450,126.0507,223.2413,0,U,41194,999,3881,0,-.345E-5,0
BELINTERSAT-1,2016-001A,2026-07-16T03:18:03.837024,1.00273499,.0001777,0.0510,248.7896,184.0684,322.1320,0,U,41238,999,3852,0,.96E-6,0
IRNSS-1E,2016-003A,2026-07-13T01:01:03.714240,1.00278688,.00189772,33.2887,59.3748,176.6620,181.8769,0,U,41241,999,3833,0,-.321E-5,0
EUTELSAT 9B,2016-005A,2026-07-16T03:05:57.497280,1.00271045,.0001067,0.0390,62.9661,42.8913,243.5706,0,U,41310,999,3840,0,.51E-6,0
SES-9,2016-013A,2026-07-16T00:08:56.422176,1.00272140,.0002161,0.0136,340.1242,126.3108,297.9416,0,U,41380,999,3772,0,-.356E-5,0
EUTELSAT 65 WEST A,2016-014A,2026-07-16T01:02:06.570240,1.00270197,.0002154,0.0972,295.4135,180.0931,128.7001,0,U,41382,999,3781,0,-.287E-5,0
IRNSS-1F,2016-015A,2026-07-15T22:04:41.754144,1.00266657,.0017694,5.4189,96.1188,180.0641,21.2430,0,U,41384,999,3795,0,.144E-5,0
BEIDOU-2 IGSO-6,2016-021A,2026-06-26T02:38:38.671584,1.00258926,.0057558,60.2385,37.9495,231.0163,137.2672,0,U,41434,999,3757,0,-.145E-5,0
IRNSS-1G,2016-027A,2026-07-16T00:15:03.336192,1.00270417,.000596,5.2647,96.8077,11.5789,318.9035,0,U,41469,999,3746,0,-.348E-5,0
JCSAT-2B,2016-028A,2026-07-15T19:14:04.632000,1.00276535,.0000901,0.0179,38.8298,67.0770,270.2536,0,U,41471,999,3741,0,-.175E-5,0
THAICOM 8,2016-031A,2026-07-14T08:39:27.759744,1.00270441,.000294,0.0745,49.0681,25.2774,66.2255,0,U,41552,999,3699,0,-.128E-5,0
INTELSAT 31 (IS-31),2016-035A,2026-07-16T02:36:13.103136,1.00270128,.0001145,0.0113,301.5806,353.9197,302.4443,0,U,41581,999,3697,0,-.161E-5,0
BEIDOU-2 G7,2016-037A,2026-07-16T02:13:38.789184,1.00272926,.00059,1.7895,69.4986,359.7484,8.6426,0,U,41586,999,718,0,-.365E-5,0
ABS-2A (MONGOLSAT-1),2016-038A,2026-07-15T18:51:25.717248,1.00270677,.00011253,0.0126,43.2812,41.1980,206.6930,0,U,41588,999,3699,0,-.94E-6,0
EUTELSAT 117 WEST B,2016-038B,2026-07-16T00:47:22.736256,1.00273122,.0000168,0.0097,199.8826,314.0131,34.8299,0,U,41589,999,3695,0,-.22E-6,0
BRISAT,2016-039A,2026-07-14T14:07:54.625152,1.00268660,.00018975,0.0189,30.7279,84.5968,179.5972,0,U,41591,999,3688,0,0,0
ECHOSTAR 18,2016-039B,2026-07-14T04:34:14.244960,1.00271148,.00013658,0.0179,38.9958,85.5892,174.6593,0,U,41592,999,3689,0,-.289E-5,0
MUOS-5,2016-041A,2026-07-16T02:33:43.343424,1.00272579,.0199577,2.1426,302.2369,260.5991,24.4039,0,U,41622,999,3737,0,-.15E-5,0
TIANTONG-1 1,2016-048A,2026-07-16T00:06:56.613024,1.00268533,.0004975,3.9038,43.6351,58.9073,294.4022,0,U,41725,999,3655,0,-.328E-5,0
JCSAT-16,2016-050A,2026-07-15T17:28:34.826304,1.00273960,.0001063,0.0177,43.0608,81.7179,214.8845,0,U,41729,999,3635,0,-.261E-5,0
USA 270,2016-052A,2026-07-14T10:51:22.391136,1.00267800,.0009408,4.2649,76.8388,101.7031,42.7683,0,U,41744,999,2840,0,-.362E-5,0
USA 271,2016-052B,2026-07-14T02:57:21.919968,1.00268559,.0011085,4.2370,76.9135,165.9764,191.3847,0,U,41745,999,2818,0,-.3E-5,0
INTELSAT 36 (IS-36),2016-053A,2026-07-16T03:22:55.869888,1.00270566,.0002358,0.0127,37.3822,302.1989,73.5997,0,U,41747,999,3624,0,-.34E-6,0
INSAT-3DR,2016-054A,2026-07-16T03:24:33.215040,1.00270781,.0010545,0.0723,88.7235,181.2050,149.1809,0,U,41752,999,3610,0,-.87E-6,0
GSAT-18,2016-060A,2026-07-16T03:24:25.725888,1.00271353,.0005259,0.0377,90.5163,348.4710,340.0605,0,U,41793,999,3581,0,-.87E-6,0
SKY MUSTER 2 (NBN1B),2016-060B,2026-07-14T17:31:37.309152,1.00269327,.00015934,0.0200,47.5294,74.1319,218.6380,0,U,41794,999,3579,0,0,0
HIMAWARI-9,2016-064A,2026-07-15T22:35:31.299072,1.00271902,.0001915,0.0394,252.9658,278.3797,242.0457,0,U,41836,999,3549,0,-.285E-5,0
SHIJIAN-17 (SJ-17),2016-065A,2026-07-15T19:25:18.556320,0.99865974,.0001893,5.8236,72.2570,44.6986,301.4149,0,U,41838,999,3548,0,.53E-6,0
